[{"OBJECT_NAME":"STARLINK-1209","OBJECT_ID":"2020-012AE","EPOCH":"2026-03-09T22:23:11.967360","MEAN_MOTION":15.51155709,"ECCENTRICITY":0.00058698,"INCLINATION":53.0483,"RA_OF_ASC_NODE":332.2809,"ARG_OF_PERICENTER":271.447,"MEAN_ANOMALY":88.5866,"EPHEMERIS_TYPE":0,"CLASSIFICATION_TYPE":"U","NORAD_CAT_ID":45206,"ELEMENT_SET_NO":999,"REV_AT_EPOCH":33495,"BSTAR":0.0020679805,"MEAN_MOTION_DOT":0.00124371,"MEAN_MOTION_DDOT":0},{"OBJECT_NAME":"COSMOS 1508","OBJECT_ID":"1983-111A","EPOCH":"2026-03-09T22:22:21.745632","MEAN_MOTION":14.06848646,"ECCENTRICITY":0.0674497,"INCLINATION":82.894,"RA_OF_ASC_NODE":328.7406,"ARG_OF_PERICENTER":35.1384,"MEAN_ANOMALY":329.2394,"EPHEMERIS_TYPE":0,"CLASSIFICATION_TYPE":"U","NORAD_CAT_ID":14483,"ELEMENT_SET_NO":999,"REV_AT_EPOCH":10737,"BSTAR":0.00039602262,"MEAN_MOTION_DOT":6.193e-5,"MEAN_MOTION_DDOT":0}]
